[{"OBJECT_NAME":"COSMOS 2503","OBJECT_ID":"2015-009A","EPOCH":"2026-03-09T16:42:37.703808","MEAN_MOTION":15.06275973,"ECCENTRICITY":0.00153206,"INCLINATION":97.8437,"RA_OF_ASC_NODE":123.7175,"ARG_OF_PERICENTER":225.745,"MEAN_ANOMALY":134.252,"EPHEMERIS_TYPE":0,"CLASSIFICATION_TYPE":"U","NORAD_CAT_ID":40420,"ELEMENT_SET_NO":999,"REV_AT_EPOCH":60395,"BSTAR":0.00019589832,"MEAN_MOTION_DOT":2.817e-5,"MEAN_MOTION_DDOT":0},{"OBJECT_NAME":"STARLINK-3528","OBJECT_ID":"2022-016A","EPOCH":"2026-03-09T22:37:44.894208","MEAN_MOTION":15.08840637,"ECCENTRICITY":0.00012872,"INCLINATION":53.2189,"RA_OF_ASC_NODE":327.9607,"ARG_OF_PERICENTER":95.9714,"MEAN_ANOMALY":264.1425,"EPHEMERIS_TYPE":0,"CLASSIFICATION_TYPE":"U","NORAD_CAT_ID":51714,"ELEMENT_SET_NO":999,"REV_AT_EPOCH":22346,"BSTAR":-3.6292982e-5,"MEAN_MOTION_DOT":-8.65e-6,"MEAN_MOTION_DDOT":0}]
